NORAD_CAT_ID,OBJECT_NAME,OBJECT_TYPE,EPOCH,MEAN_MOTION,ECCENTRICITY,INCLINATION,RA_OF_ASC_NODE,ARG_OF_PERICENTER,MEAN_ANOMALY,BSTAR,MEAN_MOTION_DOT,MEAN_MOTION_DDOT,TLE_LINE0,TLE_LINE1,TLE_LINE2,SEMIMAJOR_AXIS,PERIOD,APOGEE,PERIGEE,DECAYED
52468.0,STARLINK-3864,PAYLOAD,2024-08-13 22:31:37,15.0880816,0.000175,53.2168,110.304,79.5163,280.6027,0.001188,0.00018653,0.0,0 STARLINK-3864,1 52468U 22049T   24226.93863099  .00018653  00000-0  11880-2 0  9998,2 52468  53.2168 110.3040 0001750  79.5163 280.6027 15.08808160125780,6917.978,95.44,541.053,538.632,0.0
52468.0,STARLINK-3864,PAYLOAD,2024-08-14 09:39:20,15.08833953,0.0001634,53.2146,108.2201,83.8172,276.3006,0.0023388,0.00037124,0.0,0 STARLINK-3864,1 52468U 22049T   24227.40231808  .00037124  00000-0  23388-2 0  9998,2 52468  53.2146 108.2201 0001634  83.8172 276.3006 15.08833953125855,6917.899,95.438,540.894,538.633,0.0
52468.0,STARLINK-3864,PAYLOAD,2024-08-14 22:22:25,15.08858649,0.0001632,53.2151,105.8417,81.9595,278.1582,0.0017305,0.00027374,0.0,0 STARLINK-3864,1 52468U 22049T   24227.93223618  .00027374  00000-0  17305-2 0  9994,2 52468  53.2151 105.8417 0001632  81.9595 278.1582 15.08858649125936,6917.823,95.436,540.817,538.559,0.0
52468.0,STARLINK-3864,PAYLOAD,2024-08-15 09:30:06,15.0886379,0.0001786,53.2162,103.76,83.0401,277.0794,0.0012984,0.0002045,0.0,0 STARLINK-3864,1 52468U 22049T   24228.39591310  .00020450  00000-0  12984-2 0  9998,2 52468  53.2162 103.7600 0001786  83.0401 277.0794 15.08863790126003,6917.808,95.436,540.908,538.437,0.0
52468.0,STARLINK-3864,PAYLOAD,2024-08-15 22:13:11,15.08859668,0.0002091,53.2158,101.3812,93.5728,266.5504,0.0015528,0.00024525,0.0,0 STARLINK-3864,1 52468U 22049T   24228.92583226  .00024525  00000-0  15528-2 0  9998,2 52468  53.2158 101.3812 0002091  93.5728 266.5504 15.08859668126242,6917.82,95.436,541.132,538.239,0.0
52468.0,STARLINK-3864,PAYLOAD,2024-08-17 01:14:45,15.08862135,0.0001524,53.2163,96.3281,80.745,279.3715,0.0013479,0.00021242,0.0,0 STARLINK-3864,1 52468U 22049T   24230.05191248  .00021242  00000-0  13479-2 0  9990,2 52468  53.2163  96.3281 0001524  80.7450 279.3715 15.08862135126419,6917.813,95.436,540.732,538.623,0.0
52468.0,STARLINK-3864,PAYLOAD,2024-08-17 15:33:13,15.08841063,0.0001409,53.2171,93.6428,88.1888,271.9266,0.00093417,0.00014611,0.0,0 STARLINK-3864,1 52468U 22049T   24230.64807612  .00014611  00000-0  93417-3 0  9997,2 52468  53.2171  93.6428 0001409  88.1888 271.9266 15.08841063126506,6917.877,95.437,540.717,538.767,0.0
52468.0,STARLINK-3864,PAYLOAD,2024-08-18 01:05:32,15.08842949,0.0001298,53.2172,91.8588,113.8212,246.2916,0.0006412,9.932e-05,0.0,0 STARLINK-3864,1 52468U 22049T   24231.04551537  .00009932  00000-0  64120-3 0  9993,2 52468  53.2172  91.8588 0001298 113.8212 246.2916 15.08842949126564,6917.871,95.437,540.634,538.838,0.0
52468.0,STARLINK-3864,PAYLOAD,2024-08-18 20:10:09,15.08855126,0.000122,53.2162,88.291,96.8193,263.2938,0.00054427,8.388e-05,0.0,0 STARLINK-3864,1 52468U 22049T   24231.84039076  .00008388  00000-0  54427-3 0  9993,2 52468  53.2162  88.2910 0001220  96.8193 263.2938 15.08855126126525,6917.834,95.437,540.543,538.855,0.0
52468.0,STARLINK-3864,PAYLOAD,2024-08-19 13:39:24,15.08840735,0.0001839,53.2163,85.0279,91.7797,268.3406,3.8341e-05,3.22e-06,0.0,0 STARLINK-3864,1 52468U 22049T   24232.56903172  .00000322  00000-0  38341-4 0  9998,2 52468  53.2163  85.0279 0001839  91.7797 268.3406 15.08840735126794,6917.878,95.438,541.015,538.471,0.0
52468.0,STARLINK-3864,PAYLOAD,2024-08-19 21:36:20,15.08835575,0.0001381,53.2149,83.539,100.6396,259.4752,-8.4428e-06,-4.22e-06,0.0,0 STARLINK-3864,1 52468U 22049T   24232.90023616 -.00000422  00000-0 -84428-5 0  9993,2 52468  53.2149  83.5390 0001381 100.6396 259.4752 15.08835575126849,6917.894,95.438,540.714,538.804,0.0
52468.0,STARLINK-3864,PAYLOAD,2024-08-20 19:51:46,15.08819707,0.000199,53.2151,79.3726,51.5708,308.5462,4.7409e-05,4.66e-06,0.0,0 STARLINK-3864,1 52468U 22049T   24233.82761854  .00000466  00000-0  47409-4 0  9991,2 52468  53.2151  79.3726 0001990  51.5708 308.5462 15.08819707126983,6917.942,95.439,541.184,538.431,0.0
52468.0,STARLINK-3864,PAYLOAD,2024-08-20 23:02:32,15.0883513,0.0001515,53.2159,78.7779,81.02,279.0963,0.0004408,6.733e-05,0.0,0 STARLINK-3864,1 52468U 22049T   24233.96009490  .00006733  00000-0  44080-3 0  9991,2 52468  53.2159  78.7779 0001515  81.0200 279.0963 15.08835130127000,6917.895,95.438,540.808,538.712,0.0
52468.0,STARLINK-3864,PAYLOAD,2024-08-21 18:07:09,15.08858966,0.0001897,53.2156,75.2111,76.2852,283.8351,0.00086846,0.00013568,0.0,0 STARLINK-3864,1 52468U 22049T   24234.75496959  .00013568  00000-0  86846-3 0  9999,2 52468  53.2156  75.2111 0001897  76.2852 283.8351 15.08858966127120,6917.822,95.436,541.0,538.375,0.0
